start=new Date('2023-01-05T00:00:00.000Z').valueOf();
sats=[{"SEMIMAJOR_AXIS":"6917.841","ARG_OF_PERICENTER":"48.2506","OBJECT_TYPE":"PAYLOAD","ECCENTRICITY":"0.00015270","OBJECT_NAME":"STARLINK-5055","RCS_SIZE":"LARGE","TLE_LINE1":"1 54015U 22125BD  23004.58335648 -.00029238  00000-0 -18258-2 0  9990","APOAPSIS":"540.762","NORAD_CAT_ID":"54015","ELEMENT_SET_NO":"999","CLASSIFICATION_TYPE":"U","DECAY_DATE":null,"MEAN_MOTION_DOT":"-0.00029238","PERIOD":"95.437","MEAN_ANOMALY":"149.7560","BSTAR":"-0.00182580000000","EPHEMERIS_TYPE":"0","REV_AT_EPOCH":"130","RA_OF_ASC_NODE":"11.8277","REF_FRAME":"TEME","COUNTRY_CODE":"US","TLE_LINE2":"2 54015  53.2149  11.8277 0001527  48.2506 149.7560 15.08853032  1308","SITE":"AFWTR","CENTER_NAME":"EARTH","GP_ID":"222162895","PERIAPSIS":"538.649","OBJECT_ID":"2022-125BD","MEAN_MOTION_DDOT":"0.0000000000000","FILE":"3731823","MEAN_MOTION":"15.08853032","TIME_SYSTEM":"UTC","INCLINATION":"53.2149","LAUNCH_DATE":"2022-10-05","EPOCH":"2023-01-04T14:00:01.999872","MEAN_ELEMENT_THEORY":"SGP4"},{"COUNTRY_CODE":"US","REV_AT_EPOCH":"1220","RA_OF_ASC_NODE":"151.6912","REF_FRAME":"TEME","CENTER_NAME":"EARTH","GP_ID":"222195342","TLE_LINE2":"2 54051  53.2173 151.6912 0002136  52.6972 307.4215 15.08842168 12206","SITE":"AFETR","MEAN_MOTION":"15.08842168","MEAN_MOTION_DDOT":"0.0000000000000","FILE":"3732113","OBJECT_ID":"2022-136A","PERIAPSIS":"538.261","LAUNCH_DATE":"2022-10-20","INCLINATION":"53.2173","EPOCH":"2023-01-04T17:08:46.361472","MEAN_ELEMENT_THEORY":"SGP4","TIME_SYSTEM":"UTC","ECCENTRICITY":"0.00021360","OBJECT_NAME":"STARLINK-5195","OBJECT_TYPE":"PAYLOAD","SEMIMAJOR_AXIS":"6917.874","ARG_OF_PERICENTER":"52.6972","TLE_LINE1":"1 54051U 22136A   23004.71442548  .00001140  00000-0  89738-4 0  9998","APOAPSIS":"541.216","RCS_SIZE":"LARGE","CLASSIFICATION_TYPE":"U","DECAY_DATE":null,"NORAD_CAT_ID":"54051","ELEMENT_SET_NO":"999","BSTAR":"0.00008973800000","EPHEMERIS_TYPE":"0","MEAN_ANOMALY":"307.4215","PERIOD":"95.437","MEAN_MOTION_DOT":"0.00001140"},{"LAUNCH_DATE":"2022-10-20","MEAN_ELEMENT_THEORY":"SGP4","INCLINATION":"53.2191","EPOCH":"2023-01-04T07:49:11.915904","TIME_SYSTEM":"UTC","OBJECT_ID":"2022-136B","PERIAPSIS":"346.592","MEAN_MOTION":"15.73198744","FILE":"3731823","MEAN_MOTION_DDOT":"0.0000000000000","TLE_LINE2":"2 54052  53.2191 132.7932 0004715   0.2015 359.9007 15.73198744 11959","SITE":"AFETR","CENTER_NAME":"EARTH","GP_ID":"222162899","REV_AT_EPOCH":"1195","RA_OF_ASC_NODE":"132.7932","REF_FRAME":"TEME","COUNTRY_CODE":"US","PERIOD":"91.533","MEAN_MOTION_DOT":"0.00001792","BSTAR":"0.00001721600000","EPHEMERIS_TYPE":"0","MEAN_ANOMALY":"359.9007","NORAD_CAT_ID":"54052","ELEMENT_SET_NO":"999","CLASSIFICATION_TYPE":"U","DECAY_DATE":null,"RCS_SIZE":"LARGE","TLE_LINE1":"1 54052U 22136B   23004.32583236  .00001792  00000-0  17216-4 0  9991","APOAPSIS":"352.936","OBJECT_TYPE":"PAYLOAD","SEMIMAJOR_AXIS":"6727.899","ARG_OF_PERICENTER":"0.2015","ECCENTRICITY":"0.00047150","OBJECT_NAME":"STARLINK-5189"},{"NORAD_CAT_ID":"54053","ELEMENT_SET_NO":"999","CLASSIFICATION_TYPE":"U","DECAY_DATE":null,"PERIOD":"95.438","MEAN_MOTION_DOT":"0.00001627","BSTAR":"0.00012031000000","EPHEMERIS_TYPE":"0","MEAN_ANOMALY":"315.3175","OBJECT_TYPE":"PAYLOAD","ARG_OF_PERICENTER":"44.7966","SEMIMAJOR_AXIS":"6917.888","ECCENTRICITY":"0.00018470","OBJECT_NAME":"STARLINK-5176","RCS_SIZE":"LARGE","TLE_LINE1":"1 54053U 22136C   23004.44577998  .00001627  00000-0  12031-3 0  9999","APOAPSIS":"541.031","OBJECT_ID":"2022-136C","PERIAPSIS":"538.475","MEAN_MOTION":"15.08837551","MEAN_MOTION_DDOT":"0.0000000000000","FILE":"3731823","LAUNCH_DATE":"2022-10-20","EPOCH":"2023-01-04T10:41:55.390272","INCLINATION":"53.2175","MEAN_ELEMENT_THEORY":"SGP4","TIME_SYSTEM":"UTC","RA_OF_ASC_NODE":"152.8580","REV_AT_EPOCH":"1168","REF_FRAME":"TEME","COUNTRY_CODE":"US","TLE_LINE2":"2 54053  53.2175 152.8580 0001847  44.7966 315.3175 15.08837551 11681","SITE":"AFETR","CENTER_NAME":"EARTH","GP_ID":"222163118"},{"LAUNCH_DATE":"2022-10-20","EPOCH":"2023-01-04T21:39:00.150048","INCLINATION":"53.2181","MEAN_ELEMENT_THEORY":"SGP4","TIME_SYSTEM":"UTC","OBJECT_ID":"2022-136D","PERIAPSIS":"538.312","MEAN_MOTION":"15.08847456","FILE":"3732116","MEAN_MOTION_DDOT":"0.0000000000000","SITE":"AFETR","TLE_LINE2":"2 54054  53.2181 150.7272 0002039  48.8657 311.2511 15.08847456 12236","GP_ID":"222195486","CENTER_NAME":"EARTH","REF_FRAME":"TEME","REV_AT_EPOCH":"1223","RA_OF_ASC_NODE":"150.7272","COUNTRY_CODE":"US","PERIOD":"95.437","MEAN_MOTION_DOT":"0.00000337","BSTAR":"0.00003929100000","EPHEMERIS_TYPE":"0","MEAN_ANOMALY":"311.2511","ELEMENT_SET_NO":"999","NORAD_CAT_ID":"54054","DECAY_DATE":null,"CLASSIFICATION_TYPE":"U","RCS_SIZE":"LARGE","APOAPSIS":"541.133","TLE_LINE1":"1 54054U 22136D   23004.90208507  .00000337  00000-0  39291-4 0  9993","OBJECT_TYPE":"PAYLOAD","ARG_OF_PERICENTER":"48.8657","SEMIMAJOR_AXIS":"6917.858","OBJECT_NAME":"STARLINK-5163","ECCENTRICITY":"0.00020390"},{"TIME_SYSTEM":"UTC","LAUNCH_DATE":"2022-10-20","MEAN_ELEMENT_THEORY":"SGP4","INCLINATION":"53.2162","EPOCH":"2023-01-04T16:58:08.395968","MEAN_MOTION_DDOT":"0.0000000000000","FILE":"3732116","MEAN_MOTION":"15.08850024","PERIAPSIS":"538.681","OBJECT_ID":"2022-136E","CENTER_NAME":"EARTH","GP_ID":"222195487","TLE_LINE2":"2 54055  53.2162 151.6457 0001495  70.8955 289.2199 15.08850024 12200","SITE":"AFETR","COUNTRY_CODE":"US","REV_AT_EPOCH":"1220","RA_OF_ASC_NODE":"151.6457","REF_FRAME":"TEME","MEAN_ANOMALY":"289.2199","EPHEMERIS_TYPE":"0","BSTAR":"0.00017615000000","MEAN_MOTION_DOT":"0.00002517","PERIOD":"95.437","CLASSIFICATION_TYPE":"U","DECAY_DATE":null,"NORAD_CAT_ID":"54055","ELEMENT_SET_NO":"999","TLE_LINE1":"1 54055U 22136E   23004.70704162  .00002517  00000-0  17615-3 0  9997","APOAPSIS":"540.749","RCS_SIZE":"LARGE","OBJECT_NAME":"STARLINK-5158","ECCENTRICITY":"0.00014950","ARG_OF_PERICENTER":"70.8955","SEMIMAJOR_AXIS":"6917.850","OBJECT_TYPE":"PAYLOAD"},{"CENTER_NAME":"EARTH","GP_ID":"222162453","TLE_LINE2":"2 54056  53.2179 152.7924 0002077  47.4181 312.6986 15.08848520 11682","SITE":"AFETR","COUNTRY_CODE":"US","RA_OF_ASC_NODE":"152.7924","REV_AT_EPOCH":"1168","REF_FRAME":"TEME","TIME_SYSTEM":"UTC","LAUNCH_DATE":"2022-10-20","EPOCH":"2023-01-04T10:27:22.963680","INCLINATION":"53.2179","MEAN_ELEMENT_THEORY":"SGP4","MEAN_MOTION_DDOT":"0.0000000000000","FILE":"3731823","MEAN_MOTION":"15.08848520","PERIAPSIS":"538.283","OBJECT_ID":"2022-136F","TLE_LINE1":"1 54056U 22136F   23004.43568245  .00000310  00000-0  37549-4 0  9996","APOAPSIS":"541.156","RCS_SIZE":"LARGE","ECCENTRICITY":"0.00020770","OBJECT_NAME":"STARLINK-5226","SEMIMAJOR_AXIS":"6917.854","ARG_OF_PERICENTER":"47.4181","OBJECT_TYPE":"PAYLOAD","MEAN_ANOMALY":"312.6986","BSTAR":"0.00003754900000","EPHEMERIS_TYPE":"0","MEAN_MOTION_DOT":"0.00000310","PERIOD":"95.437","CLASSIFICATION_TYPE":"U","DECAY_DATE":null,"NORAD_CAT_ID":"54056","ELEMENT_SET_NO":"999"},{"GP_ID":"222162673","CENTER_NAME":"EARTH","SITE":"AFETR","TLE_LINE2":"2 54057  53.2117 134.7076 0000685 209.3022 150.7958 15.69032906 11959","COUNTRY_CODE":"US","REF_FRAME":"TEME","REV_AT_EPOCH":"1195","RA_OF_ASC_NODE":"134.7076","LAUNCH_DATE":"2022-10-20","MEAN_ELEMENT_THEORY":"SGP4","INCLINATION":"53.2117","EPOCH":"2023-01-04T14:53:14.463456","TIME_SYSTEM":"UTC","MEAN_MOTION":"15.69032906","FILE":"3731823","MEAN_MOTION_DDOT":"0.0000000000000","OBJECT_ID":"2022-136G","PERIAPSIS":"361.205","APOAPSIS":"362.129","TLE_LINE1":"1 54057U 22136G   23004.62030629  .00077212  00000-0  65430-3 0  9992","RCS_SIZE":"LARGE","ECCENTRICITY":"0.00006850","OBJECT_NAME":"STARLINK-5216","OBJECT_TYPE":"PAYLOAD","SEMIMAJOR_AXIS":"6739.802","ARG_OF_PERICENTER":"209.3022","BSTAR":"0.00065430000000","EPHEMERIS_TYPE":"0","MEAN_ANOMALY":"150.7958","PERIOD":"91.776","MEAN_MOTION_DOT":"0.00077212","DECAY_DATE":null,"CLASSIFICATION_TYPE":"U","ELEMENT_SET_NO":"999","NORAD_CAT_ID":"54057"},{"REF_FRAME":"TEME","REV_AT_EPOCH":"1220","RA_OF_ASC_NODE":"151.5512","COUNTRY_CODE":"US","SITE":"AFETR","TLE_LINE2":"2 54058  53.2176 151.5512 0001666  45.9837 314.1292 15.08844487 12209","GP_ID":"222136386","CENTER_NAME":"EARTH","PERIAPSIS":"538.579","OBJECT_ID":"2022-136H","MEAN_MOTION_DDOT":"0.0000000000000","FILE":"3731808","MEAN_MOTION":"15.08844487","TIME_SYSTEM":"UTC","INCLINATION":"53.2176","LAUNCH_DATE":"2022-10-20","EPOCH":"2023-01-04T16:36:55.769760","MEAN_ELEMENT_THEORY":"SGP4","SEMIMAJOR_AXIS":"6917.867","ARG_OF_PERICENTER":"45.9837","OBJECT_TYPE":"PAYLOAD","OBJECT_NAME":"STARLINK-5167","ECCENTRICITY":"0.00016660","RCS_SIZE":"LARGE","APOAPSIS":"540.884","TLE_LINE1":"1 54058U 22136H   23004.69231215  .00000775  00000-0  66785-4 0  9999","ELEMENT_SET_NO":"999","NORAD_CAT_ID":"54058","DECAY_DATE":null,"CLASSIFICATION_TYPE":"U","MEAN_MOTION_DOT":"0.00000775","PERIOD":"95.437","MEAN_ANOMALY":"314.1292","BSTAR":"0.00006678500000","EPHEMERIS_TYPE":"0"},{"GP_ID":"222195658","CENTER_NAME":"EARTH","SITE":"AFETR","TLE_LINE2":"2 54059  53.2178 151.5785 0001367  90.1117 270.0032 15.08841781 12201","COUNTRY_CODE":"US","REF_FRAME":"TEME","REV_AT_EPOCH":"1220","RA_OF_ASC_NODE":"151.5785","MEAN_ELEMENT_THEORY":"SGP4","LAUNCH_DATE":"2022-10-20","INCLINATION":"53.2178","EPOCH":"2023-01-04T16:42:14.735232","TIME_SYSTEM":"UTC","MEAN_MOTION":"15.08841781","FILE":"3732116","MEAN_MOTION_DDOT":"0.0000000000000","OBJECT_ID":"2022-136J","PERIAPSIS":"538.794","APOAPSIS":"540.686","TLE_LINE1":"1 54059U 22136J   23004.69600388 -.00000486  00000-0 -12416-4 0  9994","RCS_SIZE":"LARGE","ECCENTRICITY":"0.00013670","OBJECT_NAME":"STARLINK-5173","OBJECT_TYPE":"PAYLOAD","SEMIMAJOR_AXIS":"6917.875","ARG_OF_PERICENTER":"90.1117","BSTAR":"-0.00001241600000","EPHEMERIS_TYPE":"0","MEAN_ANOMALY":"270.0032","PERIOD":"95.437","MEAN_MOTION_DOT":"-0.00000486","DECAY_DATE":null,"CLASSIFICATION_TYPE":"U","ELEMENT_SET_NO":"999","NORAD_CAT_ID":"54059"}];
